[{"OBJECT_NAME":"STARLINK-36828","OBJECT_ID":"2026-034H","EPOCH":"2026-03-08T14:08:24.961920","MEAN_MOTION":15.8098821,"ECCENTRICITY":9.987e-5,"INCLINATION":53.1586,"RA_OF_ASC_NODE":216.8197,"ARG_OF_PERICENTER":87.0754,"MEAN_ANOMALY":273.0383,"EPHEMERIS_TYPE":0,"CLASSIFICATION_TYPE":"U","NORAD_CAT_ID":67857,"ELEMENT_SET_NO":999,"REV_AT_EPOCH":376,"BSTAR":0.0015801449,"MEAN_MOTION_DOT":0.00324917,"MEAN_MOTION_DDOT":0},{"OBJECT_NAME":"STARLINK-36837","OBJECT_ID":"2026-034J","EPOCH":"2026-03-08T14:06:15.693696","MEAN_MOTION":15.80949222,"ECCENTRICITY":0.00010219,"INCLINATION":53.1592,"RA_OF_ASC_NODE":216.809,"ARG_OF_PERICENTER":99.2528,"MEAN_ANOMALY":260.8611,"EPHEMERIS_TYPE":0,"CLASSIFICATION_TYPE":"U","NORAD_CAT_ID":67858,"ELEMENT_SET_NO":999,"REV_AT_EPOCH":376,"BSTAR":0.0022959182,"MEAN_MOTION_DOT":0.00480272,"MEAN_MOTION_DDOT":0},{"OBJECT_NAME":"STARLINK-36393","OBJECT_ID":"2026-034K","EPOCH":"2026-03-08T14:05:10.467744","MEAN_MOTION":15.80961654,"ECCENTRICITY":0.00011197,"INCLINATION":53.1591,"RA_OF_ASC_NODE":216.8033,"ARG_OF_PERICENTER":125.4832,"MEAN_ANOMALY":234.6295,"EPHEMERIS_TYPE":0,"CLASSIFICATION_TYPE":"U","NORAD_CAT_ID":67859,"ELEMENT_SET_NO":999,"REV_AT_EPOCH":376,"BSTAR":0.0012697827,"MEAN_MOTION_DOT":0.0025862,"MEAN_MOTION_DDOT":0},{"OBJECT_NAME":"STARLINK-35873","OBJECT_ID":"2026-034L","EPOCH":"2026-03-08T14:04:05.979648","MEAN_MOTION":15.80941376,"ECCENTRICITY":0.00012291,"INCLINATION":53.1591,"RA_OF_ASC_NODE":216.7988,"ARG_OF_PERICENTER":74.4868,"MEAN_ANOMALY":285.629,"EPHEMERIS_TYPE":0,"CLASSIFICATION_TYPE":"U","NORAD_CAT_ID":67860,"ELEMENT_SET_NO":999,"REV_AT_EPOCH":379,"BSTAR":0.0011538111,"MEAN_MOTION_DOT":0.0023404,"MEAN_MOTION_DDOT":0},{"OBJECT_NAME":"STARLINK-36325","OBJECT_ID":"2026-034M","EPOCH":"2026-03-08T14:03:01.093248","MEAN_MOTION":15.80969395,"ECCENTRICITY":0.00014768,"INCLINATION":53.1591,"RA_OF_ASC_NODE":216.7938,"ARG_OF_PERICENTER":6.6787,"MEAN_ANOMALY":353.4255,"EPHEMERIS_TYPE":0,"CLASSIFICATION_TYPE":"U","NORAD_CAT_ID":67861,"ELEMENT_SET_NO":999,"REV_AT_EPOCH":376,"BSTAR":0.0022561255,"MEAN_MOTION_DOT":0.00471887,"MEAN_MOTION_DDOT":0},{"OBJECT_NAME":"STARLINK-36332","OBJECT_ID":"2026-034N","EPOCH":"2026-03-08T15:32:58.187616","MEAN_MOTION":15.8096225,"ECCENTRICITY":6.904e-5,"INCLINATION":53.1587,"RA_OF_ASC_NODE":216.4722,"ARG_OF_PERICENTER":81.9089,"MEAN_ANOMALY":278.2012,"EPHEMERIS_TYPE":0,"CLASSIFICATION_TYPE":"U","NORAD_CAT_ID":67862,"ELEMENT_SET_NO":999,"REV_AT_EPOCH":377,"BSTAR":0.0012172601,"MEAN_MOTION_DOT":0.00247584,"MEAN_MOTION_DDOT":0},{"OBJECT_NAME":"STARLINK-36835","OBJECT_ID":"2026-034P","EPOCH":"2026-03-08T14:00:51.301440","MEAN_MOTION":15.80963927,"ECCENTRICITY":0.00010977,"INCLINATION":53.1592,"RA_OF_ASC_NODE":216.783,"ARG_OF_PERICENTER":109.6374,"MEAN_ANOMALY":250.4767,"EPHEMERIS_TYPE":0,"CLASSIFICATION_TYPE":"U","NORAD_CAT_ID":67863,"ELEMENT_SET_NO":999,"REV_AT_EPOCH":376,"BSTAR":0.0013054981,"MEAN_MOTION_DOT":0.00266177,"MEAN_MOTION_DDOT":0},{"OBJECT_NAME":"STARLINK-36831","OBJECT_ID":"2026-034Q","EPOCH":"2026-03-08T13:59:46.419360","MEAN_MOTION":15.80982284,"ECCENTRICITY":0.00011592,"INCLINATION":53.1588,"RA_OF_ASC_NODE":216.7777,"ARG_OF_PERICENTER":53.0834,"MEAN_ANOMALY":307.0294,"EPHEMERIS_TYPE":0,"CLASSIFICATION_TYPE":"U","NORAD_CAT_ID":67864,"ELEMENT_SET_NO":999,"REV_AT_EPOCH":376,"BSTAR":0.0015336732,"MEAN_MOTION_DOT":0.00314881,"MEAN_MOTION_DDOT":0},{"OBJECT_NAME":"STARLINK-36738","OBJECT_ID":"2026-034R","EPOCH":"2026-03-08T13:58:41.887200","MEAN_MOTION":15.8096434,"ECCENTRICITY":0.00011124,"INCLINATION":53.159,"RA_OF_ASC_NODE":216.7724,"ARG_OF_PERICENTER":82.9686,"MEAN_ANOMALY":277.1463,"EPHEMERIS_TYPE":0,"CLASSIFICATION_TYPE":"U","NORAD_CAT_ID":67865,"ELEMENT_SET_NO":999,"REV_AT_EPOCH":376,"BSTAR":0.0014704736,"MEAN_MOTION_DOT":0.00301141,"MEAN_MOTION_DDOT":0},{"OBJECT_NAME":"STARLINK-36780","OBJECT_ID":"2026-034S","EPOCH":"2026-03-08T13:57:37.019808","MEAN_MOTION":15.80962671,"ECCENTRICITY":0.00010034,"INCLINATION":53.1594,"RA_OF_ASC_NODE":216.7661,"ARG_OF_PERICENTER":90.239,"MEAN_ANOMALY":269.8748,"EPHEMERIS_TYPE":0,"CLASSIFICATION_TYPE":"U","NORAD_CAT_ID":67866,"ELEMENT_SET_NO":999,"REV_AT_EPOCH":376,"BSTAR":0.0015312545,"MEAN_MOTION_DOT":0.00314071,"MEAN_MOTION_DDOT":0},{"OBJECT_NAME":"STARLINK-36761","OBJECT_ID":"2026-034T","EPOCH":"2026-03-08T15:27:34.210944","MEAN_MOTION":15.81006906,"ECCENTRICITY":6.789e-5,"INCLINATION":53.1594,"RA_OF_ASC_NODE":216.4453,"ARG_OF_PERICENTER":96.6886,"MEAN_ANOMALY":263.4214,"EPHEMERIS_TYPE":0,"CLASSIFICATION_TYPE":"U","NORAD_CAT_ID":67867,"ELEMENT_SET_NO":999,"REV_AT_EPOCH":377,"BSTAR":0.0018378215,"MEAN_MOTION_DOT":0.00380849,"MEAN_MOTION_DDOT":0},{"OBJECT_NAME":"STARLINK-36762","OBJECT_ID":"2026-034U","EPOCH":"2026-03-08T13:55:27.432768","MEAN_MOTION":15.80966847,"ECCENTRICITY":0.00010924,"INCLINATION":53.1594,"RA_OF_ASC_NODE":216.7572,"ARG_OF_PERICENTER":79.7067,"MEAN_ANOMALY":280.4078,"EPHEMERIS_TYPE":0,"CLASSIFICATION_TYPE":"U","NORAD_CAT_ID":67868,"ELEMENT_SET_NO":999,"REV_AT_EPOCH":376,"BSTAR":0.0014582694,"MEAN_MOTION_DOT":0.00298581,"MEAN_MOTION_DDOT":0},{"OBJECT_NAME":"STARLINK-36779","OBJECT_ID":"2026-034V","EPOCH":"2026-03-08T13:54:22.663872","MEAN_MOTION":15.80935225,"ECCENTRICITY":9.75e-5,"INCLINATION":53.1594,"RA_OF_ASC_NODE":216.7514,"ARG_OF_PERICENTER":26.536,"MEAN_ANOMALY":333.5712,"EPHEMERIS_TYPE":0,"CLASSIFICATION_TYPE":"U","NORAD_CAT_ID":67869,"ELEMENT_SET_NO":999,"REV_AT_EPOCH":376,"BSTAR":0.002886136,"MEAN_MOTION_DOT":0.00613078,"MEAN_MOTION_DDOT":0},{"OBJECT_NAME":"STARLINK-36770","OBJECT_ID":"2026-034W","EPOCH":"2026-03-08T13:52:12.942912","MEAN_MOTION":15.80929416,"ECCENTRICITY":0.00012729,"INCLINATION":53.1599,"RA_OF_ASC_NODE":216.741,"ARG_OF_PERICENTER":98.3381,"MEAN_ANOMALY":261.7786,"EPHEMERIS_TYPE":0,"CLASSIFICATION_TYPE":"U","NORAD_CAT_ID":67870,"ELEMENT_SET_NO":999,"REV_AT_EPOCH":376,"BSTAR":0.0018241148,"MEAN_MOTION_DOT":0.00376444,"MEAN_MOTION_DDOT":0},{"OBJECT_NAME":"STARLINK-36769","OBJECT_ID":"2026-034X","EPOCH":"2026-03-08T13:53:17.952864","MEAN_MOTION":15.80893647,"ECCENTRICITY":0.00016702,"INCLINATION":53.1598,"RA_OF_ASC_NODE":216.7465,"ARG_OF_PERICENTER":6.1578,"MEAN_ANOMALY":353.9465,"EPHEMERIS_TYPE":0,"CLASSIFICATION_TYPE":"U","NORAD_CAT_ID":67871,"ELEMENT_SET_NO":999,"REV_AT_EPOCH":376,"BSTAR":0.0022126123,"MEAN_MOTION_DOT":0.00460542,"MEAN_MOTION_DDOT":0},{"OBJECT_NAME":"STARLINK-36786","OBJECT_ID":"2026-034Y","EPOCH":"2026-03-08T13:51:08.135136","MEAN_MOTION":15.80950329,"ECCENTRICITY":9.603e-5,"INCLINATION":53.1597,"RA_OF_ASC_NODE":216.7366,"ARG_OF_PERICENTER":74.5129,"MEAN_ANOMALY":285.5999,"EPHEMERIS_TYPE":0,"CLASSIFICATION_TYPE":"U","NORAD_CAT_ID":67872,"ELEMENT_SET_NO":999,"REV_AT_EPOCH":376,"BSTAR":0.0012410762,"MEAN_MOTION_DOT":0.00252443,"MEAN_MOTION_DDOT":0}]
